STARLINK-5181           
1 54070U 22136V   26175.30550456  .00000341  00000+0  39489-4 0  9993
2 54070  53.1589 225.0591 0000844  76.2334 283.8751 15.08831109202941
STARLINK-5168           
1 54071U 22136W   26174.83813986 -.00000179  00000+0  68408-5 0  9995
2 54071  53.1588 227.1213 0001086  84.1653 275.9462 15.08831074202870
STARLINK-5146           
1 54073U 22136Y   26174.83676333 -.00003670  00000+0 -21262-3 0  9995
2 54073  53.1587 222.1307 0001024  79.6216 280.4891 15.08833316202942
STARLINK-5192           
1 54074U 22136Z   26174.83445406 -.00000571  00000+0 -17764-4 0  9991
2 54074  53.1584 227.0971 0001156  84.1834 275.9289 15.08830787202875
STARLINK-5212           
1 54075U 22136AA  26176.16667823  .01310810  00000+0  45131-1 0  9994
2 54075  53.1590 215.4093 0001418  56.9869 352.8214 15.26514467  5648
STARLINK-5201           
1 54076U 22136AB  26176.14924488 -.00000213  00000+0  47125-5 0  9998
2 54076  53.1585 221.7734 0001117  87.2531 272.8588 15.08830868203061
STARLINK-5171           
1 54077U 22136AC  26174.78079593 -.00000173  00000+0  72146-5 0  9991
2 54077  53.1594 203.3588 0001176  82.1955 277.9170 15.08830886203203
STARLINK-5175           
1 54079U 22136AE  26174.82442708  .00000638  00000+0  58155-4 0  9998
2 54079  53.1589 217.7509 0001162  89.0455 271.0669 15.08830957203002
STARLINK-5210           
1 54082U 22136AH  26174.82072403  .00000470  00000+0  47632-4 0  9995
2 54082  53.1572 217.7232 0001654  81.1089 279.0090 15.08826459203001
STARLINK-5178           
1 54083U 22136AJ  26174.80966859 -.00000189  00000+0  61912-5 0  9997
2 54083  53.1585 217.6600 0001129  77.7861 282.3257 15.08830813203001
STARLINK-5183           
1 54084U 22136AK  26174.81703837 -.00000173  00000+0  72033-5 0  9993
2 54084  53.1585 217.7038 0001139  79.6605 280.4515 15.08831376203007
STARLINK-5166           
1 54085U 22136AL  26174.40949861 -.00000183  00000+0  65828-5 0  9993
2 54085  53.1595 219.4289 0001350  78.2279 281.8864 15.08832983202942
STARLINK-5211           
1 54086U 22136AM  26174.80921130 -.00002087  00000+0 -11309-3 0  9996
2 54086  53.1584 202.6955 0001224  87.8142 272.2990 15.08832019203215
STARLINK-5184           
1 54087U 22136AN  26174.83537971  .00000369  00000+0  41300-4 0  9990
2 54087  53.1576 217.1171 0001099  86.8451 273.2666 15.08831991203017
STARLINK-5153           
1 54088U 22136AP  26174.81336747  .00000619  00000+0  56995-4 0  9991
2 54088  53.1587 217.6822 0001277  66.5211 293.5915 15.08836127203002
STARLINK-5143           
1 54089U 22136AQ  26174.85748338  .00000321  00000+0  38284-4 0  9990
2 54089  53.1583 217.2518 0001029  78.6562 281.4545 15.08834686203019
STARLINK-5177           
1 54090U 22136AR  26174.39748749  .00000352  00000+0  40220-4 0  9994
2 54090  53.1579 219.3536 0000979  85.6451 274.4653 15.08834855202948
STARLINK-5221           
1 54091U 22136AS  26174.83169604  .00000080  00000+0  23116-4 0  9994
2 54091  53.1585 217.0909 0001121  88.4233 271.6887 15.08829570203019
STARLINK-5190           
1 54092U 22136AT  26175.92440253  .00157505  00000+0  63377-3 0  9995
2 54092  53.1721   1.2504 0001796 275.9655  84.1165 15.85474245206137
STARLINK-5213           
1 54093U 22136AU  26174.84643733  .00000092  00000+0  23904-4 0  9995
2 54093  53.1584 217.1774 0001170  82.0203 278.0921 15.08829430203017
STARLINK-5193           
1 54095U 22136AW  26175.30275104  .00000559  00000+0  53246-4 0  9992
2 54095  53.1584 215.0475 0001230  89.5873 270.5259 15.08830060203085
STARLINK-5188           
1 54096U 22136AX  26174.85011292  .00000285  00000+0  36022-4 0  9997
2 54096  53.1584 217.2007 0001085  84.2817 275.8298 15.08835339203017
STARLINK-5197           
1 54097U 22136AY  26176.18275646  .00000073  00000+0  22686-4 0  9997
2 54097  53.1580 186.3497 0001091  71.9722 288.1388 15.08837414203561
STARLINK-5217           
1 54098U 22136AZ  26174.83642835  .00000642  00000+0  58407-4 0  9998
2 54098  53.1581 217.8080 0001208  88.2541 271.8589 15.08840984203008
STARLINK-5198           
1 54099U 22136BA  26174.82800794  .00000532  00000+0  51537-4 0  9993
2 54099  53.1581 217.0642 0000975  55.8768 304.2316 15.08831484203011
STARLINK-5185           
1 54100U 22136BB  26174.84274636  .00000327  00000+0  38623-4 0  9991
2 54100  53.1589 217.1549 0001093  86.8968 273.2149 15.08833677203012
STARLINK-5204           
1 54101U 22136BC  26175.96843788  .00099983  00000+0  60772-2 0  9990
2 54101  53.1582 197.1342 0001193  70.4974 289.6146 15.09641241203395
STARLINK-5179           
1 54102U 22136BD  26174.40854088  .00000211  00000+0  31319-4 0  9997
2 54102  53.1583 219.4124 0001058  84.0159 276.0953 15.08832292202942
STARLINK-5200           
1 54103U 22136BE  26174.77835950 -.00000024  00000+0  16563-4 0  9992
2 54103  53.1587 197.5196 0001114  83.8302 276.2817 15.08829805203287
STARLINK-5203           
1 54104U 22136BF  26176.20587838  .00206577  00000+0  11227-1 0  9991
2 54104  53.1609 175.7976 0001770  88.3501 271.7695 15.13086878203719
