OBJECT_NAME,OBJECT_ID,EPOCH,MEAN_MOTION,ECCENTRICITY,INCLINATION,RA_OF_ASC_NODE,ARG_OF_PERICENTER,MEAN_ANOMALY,EPHEMERIS_TYPE,CLASSIFICATION_TYPE,NORAD_CAT_ID,ELEMENT_SET_NO,REV_AT_EPOCH,BSTAR,MEAN_MOTION_DOT,MEAN_MOTION_DDOT
STARLINK-5181,2022-136V,2026-06-24T07:19:55.593984,15.08831109,.00008445,53.1589,225.0591,76.2334,283.8751,0,U,54070,999,20294,.39489004E-4,.341E-5,0
STARLINK-5168,2022-136W,2026-06-23T20:06:55.283904,15.08831074,.00010868,53.1588,227.1213,84.1653,275.9462,0,U,54071,999,20287,.6840784E-5,-.179E-5,0
STARLINK-5146,2022-136Y,2026-06-23T20:04:56.351712,15.08833316,.00010244,53.1587,222.1307,79.6216,280.4891,0,U,54073,999,20294,-.21262066E-3,-.367E-4,0
STARLINK-5192,2022-136Z,2026-06-23T20:01:36.830784,15.08830787,.00011569,53.1584,227.0971,84.1834,275.9289,0,U,54074,999,20287,-.17764011E-4,-.571E-5,0
STARLINK-5212,2022-136AA,2026-06-25T04:00:00.999072,15.26514467,.0001418,53.1590,215.4093,56.9869,352.8214,0,U,54075,999,564,.45131E-1,.131081E-1,0
STARLINK-5201,2022-136AB,2026-06-25T03:34:54.757632,15.08830868,.0001117,53.1585,221.7734,87.2531,272.8588,0,U,54076,999,20306,.47125E-5,-.213E-5,0
STARLINK-5171,2022-136AC,2026-06-23T18:44:20.768352,15.08830886,.00011767,53.1594,203.3588,82.1955,277.9170,0,U,54077,999,20320,.721459E-5,-.173E-5,0
STARLINK-5175,2022-136AE,2026-06-23T19:47:10.499712,15.08830957,.00011626,53.1589,217.7509,89.0455,271.0669,0,U,54079,999,20300,.58155431E-4,.638E-5,0
STARLINK-5210,2022-136AH,2026-06-23T19:41:50.556192,15.08826459,.0001654,53.1572,217.7232,81.1089,279.0090,0,U,54082,999,20300,.47632096E-4,.47E-5,0
STARLINK-5178,2022-136AJ,2026-06-23T19:25:55.366176,15.08830813,.00011295,53.1585,217.6600,77.7861,282.3257,0,U,54083,999,20300,.6191202E-5,-.189E-5,0
STARLINK-5183,2022-136AK,2026-06-23T19:36:32.115168,15.08831376,.00011395,53.1585,217.7038,79.6605,280.4515,0,U,54084,999,20300,.7203303E-5,-.173E-5,0
STARLINK-5166,2022-136AL,2026-06-23T09:49:40.679904,15.08832983,.00013509,53.1595,219.4289,78.2279,281.8864,0,U,54085,999,20294,.6582784E-5,-.183E-5,0
STARLINK-5211,2022-136AM,2026-06-23T19:25:15.856320,15.08832019,.00012248,53.1584,202.6955,87.8142,272.2990,0,U,54086,999,20321,-.11309273E-3,-.2087E-4,0
STARLINK-5184,2022-136AN,2026-06-23T20:02:56.806944,15.08831991,.00010999,53.1576,217.1171,86.8451,273.2666,0,U,54087,999,20301,.41300074E-4,.369E-5,0
STARLINK-5153,2022-136AP,2026-06-23T19:31:14.949408,15.08836127,.0001277,53.1587,217.6822,66.5211,293.5915,0,U,54088,999,20300,.56995123E-4,.619E-5,0
STARLINK-5143,2022-136AQ,2026-06-23T20:34:46.564032,15.08834686,.00010294,53.1583,217.2518,78.6562,281.4545,0,U,54089,999,20301,.38283999E-4,.321E-5,0
STARLINK-5177,2022-136AR,2026-06-23T09:32:22.919136,15.08834855,.00009792,53.1579,219.3536,85.6451,274.4653,0,U,54090,999,20294,.40220498E-4,.352E-5,0
STARLINK-5221,2022-136AS,2026-06-23T19:57:38.537856,15.08829570,.00011216,53.1585,217.0909,88.4233,271.6887,0,U,54091,999,20301,.23115733E-4,.8E-6,0
STARLINK-5190,2022-136AT,2026-06-24T22:11:08.378592,15.85474245,.0001796,53.1721,1.2504,275.9655,84.1165,0,U,54092,999,20613,.63377E-3,.157505E-2,0
STARLINK-5213,2022-136AU,2026-06-23T20:18:52.185312,15.08829430,.00011701,53.1584,217.1774,82.0203,278.0921,0,U,54093,999,20301,.2390441E-4,.92E-6,0
STARLINK-5193,2022-136AW,2026-06-24T07:15:57.689856,15.08830060,.00012307,53.1584,215.0475,89.5873,270.5259,0,U,54095,999,20308,.53245983E-4,.559E-5,0
STARLINK-5188,2022-136AX,2026-06-23T20:24:09.756288,15.08835339,.00010854,53.1584,217.2007,84.2817,275.8298,0,U,54096,999,20301,.36022384E-4,.285E-5,0
STARLINK-5197,2022-136AY,2026-06-25T04:23:10.158144,15.08837414,.0001091,53.1580,186.3497,71.9722,288.1388,0,U,54097,999,20356,.22686E-4,.73E-6,0
STARLINK-5217,2022-136AZ,2026-06-23T20:04:27.409440,15.08840984,.00012082,53.1581,217.8080,88.2541,271.8589,0,U,54098,999,20300,.5840744E-4,.642E-5,0
STARLINK-5198,2022-136BA,2026-06-23T19:52:19.886016,15.08831484,.00009753,53.1581,217.0642,55.8768,304.2316,0,U,54099,999,20301,.51536941E-4,.532E-5,0
STARLINK-5185,2022-136BB,2026-06-23T20:13:33.285504,15.08833677,.00010934,53.1589,217.1549,86.8968,273.2149,0,U,54100,999,20301,.38623365E-4,.327E-5,0
STARLINK-5204,2022-136BC,2026-06-24T23:14:33.032832,15.09641241,.0001193,53.1582,197.1342,70.4974,289.6146,0,U,54101,999,20339,.60772E-2,.99983E-3,0
STARLINK-5179,2022-136BD,2026-06-23T09:48:17.932032,15.08832292,.00010585,53.1583,219.4124,84.0159,276.0953,0,U,54102,999,20294,.31318755E-4,.211E-5,0
STARLINK-5200,2022-136BE,2026-06-23T18:40:50.260800,15.08829805,.0001114,53.1587,197.5196,83.8302,276.2817,0,U,54103,999,20328,.16563285E-4,-.24E-6,0
STARLINK-5203,2022-136BF,2026-06-25T04:56:27.892032,15.13086878,.000177,53.1609,175.7976,88.3501,271.7695,0,U,54104,999,20371,.11227E-1,.206577E-2,0
